PHISAT 2                
1 60470U 24149C   26068.78834181  .00008925  00000+0  31421-3 0  9996
2 60470  97.3806 148.6498 0001175 168.6230 191.5037 15.29548631 86792
STARLINK-35824          
1 66370U 25254Y   26068.73335161  .00032052  00000+0  10896-2 0  9998
2 66370  53.1578 229.9880 0001041  73.2932 286.8183 15.30201559 19011
